
[{"ORDINAL":"3","COMMENT":"GENERATED VIA SPACETRACK.ORG API","ORIGINATOR":"JSPOC","NORAD_CAT_ID":"40342","OBJECT_NAME":"CZ-4C DEB","OBJECT_TYPE":"DEBRIS","CLASSIFICATION_TYPE":"U","INTLDES":"14080E","EPOCH":"2015-04-05 21:07:35","EPOCH_MICROSECONDS":"47200","MEAN_MOTION":"13.43802513","ECCENTRICITY":"0.0013084","INCLINATION":"63.4193","RA_OF_ASC_NODE":"23.4411","ARG_OF_PERICENTER":"357.9871","MEAN_ANOMALY":"2.1103","EPHEMERIS_TYPE":"0","ELEMENT_SET_NO":"999","REV_AT_EPOCH":"1560","BSTAR":"0","MEAN_MOTION_DOT":"-9e-07","MEAN_MOTION_DDOT":"0","FILE":"1851714","TLE_LINE0":"0 CZ-4C DEB","TLE_LINE1":"1 40342U 14080E   15095.88026675 -.00000090  00000-0  00000+0 0  9997","TLE_LINE2":"2 40342 063.4193 023.4411 0013084 357.9871 002.1103 13.43802513 15601","OBJECT_ID":"2014-080E","OBJECT_NUMBER":"40342"},{"ORDINAL":"3","COMMENT":"GENERATED VIA SPACETRACK.ORG API","ORIGINATOR":"JSPOC","NORAD_CAT_ID":"40288","OBJECT_NAME":"CZ-2C DEB","OBJECT_TYPE":"DEBRIS","CLASSIFICATION_TYPE":"U","INTLDES":"14066C","EPOCH":"2015-04-05 21:08:36","EPOCH_MICROSECONDS":"264192","MEAN_MOTION":"14.18843294","ECCENTRICITY":"0.0191914","INCLINATION":"97.9726","RA_OF_ASC_NODE":"199.1269","ARG_OF_PERICENTER":"59.8935","MEAN_ANOMALY":"302.1112","EPHEMERIS_TYPE":"0","ELEMENT_SET_NO":"999","REV_AT_EPOCH":"2276","BSTAR":"0.001027","MEAN_MOTION_DOT":"2.529e-05","MEAN_MOTION_DDOT":"0","FILE":"1851683","TLE_LINE0":"0 CZ-2C DEB","TLE_LINE1":"1 40288U 14066C   15095.88097528  .00002529  00000-0  10270-2 0  9996","TLE_LINE2":"2 40288 097.9726 199.1269 0191914 059.8935 302.1112 14.18843294 22766","OBJECT_ID":"2014-066C","OBJECT_NUMBER":"40288"},{"ORDINAL":"4","COMMENT":"GENERATED VIA SPACETRACK.ORG API","ORIGINATOR":"JSPOC","NORAD_CAT_ID":"40335","OBJECT_NAME":"ARIANE 5 DEB (SYLDA)","OBJECT_TYPE":"DEBRIS","CLASSIFICATION_TYPE":"U","INTLDES":"14078D","EPOCH":"2015-04-06 00:29:37","EPOCH_MICROSECONDS":"277376","MEAN_MOTION":"2.36005695","ECCENTRICITY":"0.7234027","INCLINATION":"5.836","RA_OF_ASC_NODE":"157.6303","ARG_OF_PERICENTER":"280.5464","MEAN_ANOMALY":"11.982","EPHEMERIS_TYPE":"0","ELEMENT_SET_NO":"999","REV_AT_EPOCH":"278","BSTAR":"0.0071779","MEAN_MOTION_DOT":"0.00061878","MEAN_MOTION_DDOT":"0","FILE":"1852002","TLE_LINE0":"0 ARIANE 5 DEB (SYLDA)","TLE_LINE1":"1 40335U 14078D   15096.02057034  .00061878  00000-0  71779-2 0  9990","TLE_LINE2":"2 40335 005.8360 157.6303 7234027 280.5464 011.9820 02.36005695  2782","OBJECT_ID":"2014-078D","OBJECT_NUMBER":"40335"},{"ORDINAL":"3","COMMENT":"GENERATED VIA SPACETRACK.ORG API","ORIGINATOR":"JSPOC","NORAD_CAT_ID":"39629","OBJECT_NAME":"CZ-2C DEB","OBJECT_TYPE":"DEBRIS","CLASSIFICATION_TYPE":"U","INTLDES":"14014F","EPOCH":"2015-04-06 02:32:33","EPOCH_MICROSECONDS":"228959","MEAN_MOTION":"14.22414119","ECCENTRICITY":"0.0179941","INCLINATION":"98.4526","RA_OF_ASC_NODE":"140.6821","ARG_OF_PERICENTER":"172.6505","MEAN_ANOMALY":"187.7378","EPHEMERIS_TYPE":"0","ELEMENT_SET_NO":"999","REV_AT_EPOCH":"5270","BSTAR":"0.00069921","MEAN_MOTION_DOT":"1.795e-05","MEAN_MOTION_DDOT":"0","FILE":"1851759","TLE_LINE0":"0 CZ-2C DEB","TLE_LINE1":"1 39629U 14014F   15096.10594015  .00001795  00000-0  69921-3 0  9997","TLE_LINE2":"2 39629 098.4526 140.6821 0179941 172.6505 187.7378 14.22414119 52708","OBJECT_ID":"2014-014F","OBJECT_NUMBER":"39629"},{"ORDINAL":"3","COMMENT":"GENERATED VIA SPACETRACK.ORG API","ORIGINATOR":"JSPOC","NORAD_CAT_ID":"39627","OBJECT_NAME":"CZ-2C DEB","OBJECT_TYPE":"DEBRIS","CLASSIFICATION_TYPE":"U","INTLDES":"14014D","EPOCH":"2015-04-06 02:59:13","EPOCH_MICROSECONDS":"376832","MEAN_MOTION":"14.21041047","ECCENTRICITY":"0.0184899","INCLINATION":"98.0463","RA_OF_ASC_NODE":"122.9576","ARG_OF_PERICENTER":"161.4005","MEAN_ANOMALY":"199.4051","EPHEMERIS_TYPE":"0","ELEMENT_SET_NO":"999","REV_AT_EPOCH":"5265","BSTAR":"0.00077756","MEAN_MOTION_DOT":"1.967e-05","MEAN_MOTION_DDOT":"0","FILE":"1851759","TLE_LINE0":"0 CZ-2C DEB","TLE_LINE1":"1 39627U 14014D   15096.12446038  .00001967  00000-0  77756-3 0  9994","TLE_LINE2":"2 39627 098.0463 122.9576 0184899 161.4005 199.4051 14.21041047 52658","OBJECT_ID":"2014-014D","OBJECT_NUMBER":"39627"},{"ORDINAL":"5","COMMENT":"GENERATED VIA SPACETRACK.ORG API","ORIGINATOR":"JSPOC","NORAD_CAT_ID":"40264","OBJECT_NAME":"CZ-2C DEB","OBJECT_TYPE":"DEBRIS","CLASSIFICATION_TYPE":"U","INTLDES":"14059D","EPOCH":"2015-04-06 04:58:05","EPOCH_MICROSECONDS":"6495","MEAN_MOTION":"14.47550663","ECCENTRICITY":"0.0113538","INCLINATION":"97.872","RA_OF_ASC_NODE":"176.3451","ARG_OF_PERICENTER":"354.6062","MEAN_ANOMALY":"5.39","EPHEMERIS_TYPE":"0","ELEMENT_SET_NO":"999","REV_AT_EPOCH":"2747","BSTAR":"0.0011165","MEAN_MOTION_DOT":"4.411e-05","MEAN_MOTION_DDOT":"0","FILE":"1851812","TLE_LINE0":"0 CZ-2C DEB","TLE_LINE1":"1 40264U 14059D   15096.20700239  .00004411  00000-0  11165-2 0  9995","TLE_LINE2":"2 40264 097.8720 176.3451 0113538 354.6062 005.3900 14.47550663 27473","OBJECT_ID":"2014-059D","OBJECT_NUMBER":"40264"},{"ORDINAL":"3","COMMENT":"GENERATED VIA SPACETRACK.ORG API","ORIGINATOR":"JSPOC","NORAD_CAT_ID":"40343","OBJECT_NAME":"CZ-4C DEB","OBJECT_TYPE":"DEBRIS","CLASSIFICATION_TYPE":"U","INTLDES":"14080F","EPOCH":"2015-04-06 05:16:56","EPOCH_MICROSECONDS":"227008","MEAN_MOTION":"13.44172407","ECCENTRICITY":"0.0014705","INCLINATION":"63.418","RA_OF_ASC_NODE":"22.3759","ARG_OF_PERICENTER":"5.4225","MEAN_ANOMALY":"354.6959","EPHEMERIS_TYPE":"0","ELEMENT_SET_NO":"999","REV_AT_EPOCH":"1565","BSTAR":"0","MEAN_MOTION_DOT":"-9e-07","MEAN_MOTION_DDOT":"0","FILE":"1851863","TLE_LINE0":"0 CZ-4C DEB","TLE_LINE1":"1 40343U 14080F   15096.22009522 -.00000090  00000-0  00000+0 0  9999","TLE_LINE2":"2 40343 063.4180 022.3759 0014705 005.4225 354.6959 13.44172407 15652","OBJECT_ID":"2014-080F","OBJECT_NUMBER":"40343"},{"ORDINAL":"4","COMMENT":"GENERATED VIA SPACETRACK.ORG API","ORIGINATOR":"JSPOC","NORAD_CAT_ID":"40263","OBJECT_NAME":"CZ-2C DEB","OBJECT_TYPE":"DEBRIS","CLASSIFICATION_TYPE":"U","INTLDES":"14059C","EPOCH":"2015-04-06 05:30:55","EPOCH_MICROSECONDS":"814688","MEAN_MOTION":"14.48330227","ECCENTRICITY":"0.0112361","INCLINATION":"98.3219","RA_OF_ASC_NODE":"186.4939","ARG_OF_PERICENTER":"2.7346","MEAN_ANOMALY":"357.4438","EPHEMERIS_TYPE":"0","ELEMENT_SET_NO":"999","REV_AT_EPOCH":"2749","BSTAR":"0.00091733","MEAN_MOTION_DOT":"3.668e-05","MEAN_MOTION_DDOT":"0","FILE":"1851813","TLE_LINE0":"0 CZ-2C DEB","TLE_LINE1":"1 40263U 14059C   15096.22981267  .00003668  00000-0  91733-3 0  9991","TLE_LINE2":"2 40263 098.3219 186.4939 0112361 002.7346 357.4438 14.48330227 27495","OBJECT_ID":"2014-059C","OBJECT_NUMBER":"40263"},{"ORDINAL":"5","COMMENT":"GENERATED VIA SPACETRACK.ORG API","ORIGINATOR":"JSPOC","NORAD_CAT_ID":"40507","OBJECT_NAME":"BREEZE-M DEB (TANK)","OBJECT_TYPE":"DEBRIS","CLASSIFICATION_TYPE":"U","INTLDES":"15012C","EPOCH":"2015-04-06 12:38:56","EPOCH_MICROSECONDS":"414112","MEAN_MOTION":"4.76828038","ECCENTRICITY":"0.549624","INCLINATION":"49.4635","RA_OF_ASC_NODE":"143.8836","ARG_OF_PERICENTER":"4.1896","MEAN_ANOMALY":"359.1895","EPHEMERIS_TYPE":"0","ELEMENT_SET_NO":"999","REV_AT_EPOCH":"88","BSTAR":"0","MEAN_MOTION_DOT":"5.9e-07","MEAN_MOTION_DDOT":"0","FILE":"1852018","TLE_LINE0":"0 BREEZE-M DEB (TANK)","TLE_LINE1":"1 40507U 15012C   15096.52704183  .00000059  00000-0  00000+0 0  9999","TLE_LINE2":"2 40507 049.4635 143.8836 5496240 004.1896 359.1895 04.76828038   882","OBJECT_ID":"2015-012C","OBJECT_NUMBER":"40507"},{"ORDINAL":"4","COMMENT":"GENERATED VIA SPACETRACK.ORG API","ORIGINATOR":"JSPOC","NORAD_CAT_ID":"40049","OBJECT_NAME":"SL-24 PLAT","OBJECT_TYPE":"DEBRIS","CLASSIFICATION_TYPE":"U","INTLDES":"14033AR","EPOCH":"2015-04-06 14:02:15","EPOCH_MICROSECONDS":"603647","MEAN_MOTION":"14.86216683","ECCENTRICITY":"0.0014807","INCLINATION":"97.9671","RA_OF_ASC_NODE":"356.7479","ARG_OF_PERICENTER":"54.4511","MEAN_ANOMALY":"305.8082","EPHEMERIS_TYPE":"0","ELEMENT_SET_NO":"999","REV_AT_EPOCH":"4300","BSTAR":"0.00034385","MEAN_MOTION_DOT":"2.971e-05","MEAN_MOTION_DDOT":"0","FILE":"1851975","TLE_LINE0":"0 SL-24 PLAT","TLE_LINE1":"1 40049U 14033AR  15096.58490282  .00002971  00000-0  34385-3 0  9992","TLE_LINE2":"2 40049 097.9671 356.7479 0014807 054.4511 305.8082 14.86216683 43007","OBJECT_ID":"2014-033AR","OBJECT_NUMBER":"40049"},{"ORDINAL":"4","COMMENT":"GENERATED VIA SPACETRACK.ORG API","ORIGINATOR":"JSPOC","NORAD_CAT_ID":"40507","OBJECT_NAME":"BREEZE-M DEB (TANK)","OBJECT_TYPE":"DEBRIS","CLASSIFICATION_TYPE":"U","INTLDES":"15012C","EPOCH":"2015-04-07 03:44:45","EPOCH_MICROSECONDS":"185855","MEAN_MOTION":"4.76834114","ECCENTRICITY":"0.5493476","INCLINATION":"49.4632","RA_OF_ASC_NODE":"143.4795","ARG_OF_PERICENTER":"4.5768","MEAN_ANOMALY":"359.0694","EPHEMERIS_TYPE":"0","ELEMENT_SET_NO":"999","REV_AT_EPOCH":"91","BSTAR":"0","MEAN_MOTION_DOT":"4.3e-07","MEAN_MOTION_DDOT":"0","FILE":"1852333","TLE_LINE0":"0 BREEZE-M DEB (TANK)","TLE_LINE1":"1 40507U 15012C   15097.15607854  .00000043  00000-0  00000+0 0  9999","TLE_LINE2":"2 40507 049.4632 143.4795 5493476 004.5768 359.0694 04.76834114   911","OBJECT_ID":"2015-012C","OBJECT_NUMBER":"40507"},{"ORDINAL":"3","COMMENT":"GENERATED VIA SPACETRACK.ORG API","ORIGINATOR":"JSPOC","NORAD_CAT_ID":"40335","OBJECT_NAME":"ARIANE 5 DEB (SYLDA)","OBJECT_TYPE":"DEBRIS","CLASSIFICATION_TYPE":"U","INTLDES":"14078D","EPOCH":"2015-04-07 06:59:12","EPOCH_MICROSECONDS":"699744","MEAN_MOTION":"2.36148696","ECCENTRICITY":"0.7229763","INCLINATION":"5.8393","RA_OF_ASC_NODE":"157.0783","ARG_OF_PERICENTER":"281.6331","MEAN_ANOMALY":"11.7364","EPHEMERIS_TYPE":"0","ELEMENT_SET_NO":"999","REV_AT_EPOCH":"281","BSTAR":"0.0084573","MEAN_MOTION_DOT":"0.00060696","MEAN_MOTION_DDOT":"0","FILE":"1852421","TLE_LINE0":"0 ARIANE 5 DEB (SYLDA)","TLE_LINE1":"1 40335U 14078D   15097.29111921  .00060696  00000-0  84573-2 0  9999","TLE_LINE2":"2 40335 005.8393 157.0783 7229763 281.6331 011.7364 02.36148696  2814","OBJECT_ID":"2014-078D","OBJECT_NUMBER":"40335"}]